start=new Date('2023-01-30T00:00:00.000Z').valueOf();
sats=[{"MEAN_MOTION_DDOT":"0.0000000000000","RCS_SIZE":"LARGE","OBJECT_TYPE":"PAYLOAD","CLASSIFICATION_TYPE":"U","MEAN_ANOMALY":"278.3280","EPHEMERIS_TYPE":"0","OBJECT_NAME":"STARLINK-4610","TLE_LINE1":"1 53610U 22104Y   23029.86729591 -.00000456  00000-0 -10568-4 0  9998","ECCENTRICITY":"0.00009310","GP_ID":"223960050","ELEMENT_SET_NO":"999","MEAN_MOTION":"15.08835444","BSTAR":"-0.00001056800000","MEAN_MOTION_DOT":"-0.00000456","PERIOD":"95.438","COUNTRY_CODE":"US","ARG_OF_PERICENTER":"81.7817","PERIAPSIS":"539.115","DECAY_DATE":null,"EPOCH":"2023-01-29T20:48:54.366624","LAUNCH_DATE":"2022-08-28","NORAD_CAT_ID":"53610","SEMIMAJOR_AXIS":"6917.894","REV_AT_EPOCH":"2431","TLE_LINE2":"2 53610  53.2163 288.6504 0000931  81.7817 278.3280 15.08835444 24317","OBJECT_ID":"2022-104Y","TIME_SYSTEM":"UTC","MEAN_ELEMENT_THEORY":"SGP4","CENTER_NAME":"EARTH","RA_OF_ASC_NODE":"288.6504","FILE":"3765015","SITE":"AFETR","APOAPSIS":"540.403","REF_FRAME":"TEME","INCLINATION":"53.2163"},{"NORAD_CAT_ID":"53611","LAUNCH_DATE":"2022-08-28","TLE_LINE2":"2 53611  53.2179 288.7184 0001269 101.3929 258.7205 15.08836205 24436","OBJECT_ID":"2022-104Z","REV_AT_EPOCH":"2443","SEMIMAJOR_AXIS":"6917.892","EPOCH":"2023-01-29T21:03:26.736192","DECAY_DATE":null,"ARG_OF_PERICENTER":"101.3929","PERIAPSIS":"538.879","INCLINATION":"53.2179","REF_FRAME":"TEME","APOAPSIS":"540.635","FILE":"3765015","SITE":"AFETR","RA_OF_ASC_NODE":"288.7184","MEAN_ELEMENT_THEORY":"SGP4","TIME_SYSTEM":"UTC","CENTER_NAME":"EARTH","ECCENTRICITY":"0.00012690","MEAN_ANOMALY":"258.7205","EPHEMERIS_TYPE":"0","CLASSIFICATION_TYPE":"U","TLE_LINE1":"1 53611U 22104Z   23029.87739278  .00000909  00000-0  75224-4 0  9994","OBJECT_NAME":"STARLINK-4650","RCS_SIZE":"LARGE","OBJECT_TYPE":"PAYLOAD","MEAN_MOTION_DDOT":"0.0000000000000","COUNTRY_CODE":"US","MEAN_MOTION_DOT":"0.00000909","PERIOD":"95.438","BSTAR":"0.00007522400000","MEAN_MOTION":"15.08836205","GP_ID":"223958807","ELEMENT_SET_NO":"999"},{"APOAPSIS":"540.597","INCLINATION":"53.2178","REF_FRAME":"TEME","FILE":"3765015","SITE":"AFETR","TIME_SYSTEM":"UTC","CENTER_NAME":"EARTH","MEAN_ELEMENT_THEORY":"SGP4","RA_OF_ASC_NODE":"288.6227","LAUNCH_DATE":"2022-08-28","NORAD_CAT_ID":"53612","REV_AT_EPOCH":"2431","SEMIMAJOR_AXIS":"6917.891","TLE_LINE2":"2 53612  53.2178 288.6227 0001215  86.2132 273.9000 15.08836502 24310","OBJECT_ID":"2022-104AA","EPOCH":"2023-01-29T20:42:13.392864","DECAY_DATE":null,"PERIAPSIS":"538.916","ARG_OF_PERICENTER":"86.2132","COUNTRY_CODE":"US","MEAN_MOTION_DOT":"-0.00001686","PERIOD":"95.438","BSTAR":"-0.00008789400000","MEAN_MOTION":"15.08836502","ELEMENT_SET_NO":"999","GP_ID":"223959056","ECCENTRICITY":"0.00012150","CLASSIFICATION_TYPE":"U","EPHEMERIS_TYPE":"0","MEAN_ANOMALY":"273.9000","OBJECT_NAME":"STARLINK-4658","TLE_LINE1":"1 53612U 22104AA  23029.86265501 -.00001686  00000-0 -87894-4 0  9998","RCS_SIZE":"LARGE","OBJECT_TYPE":"PAYLOAD","MEAN_MOTION_DDOT":"0.0000000000000"},{"GP_ID":"223959802","ELEMENT_SET_NO":"999","MEAN_MOTION":"15.08836535","BSTAR":"0.00002223900000","PERIOD":"95.438","MEAN_MOTION_DOT":"0.00000066","COUNTRY_CODE":"US","MEAN_MOTION_DDOT":"0.0000000000000","OBJECT_TYPE":"PAYLOAD","RCS_SIZE":"LARGE","TLE_LINE1":"1 53613U 22104AB  23029.87002104  .00000066  00000-0  22239-4 0  9999","OBJECT_NAME":"STARLINK-4655","EPHEMERIS_TYPE":"0","MEAN_ANOMALY":"277.9365","CLASSIFICATION_TYPE":"U","ECCENTRICITY":"0.00010750","RA_OF_ASC_NODE":"288.6748","CENTER_NAME":"EARTH","MEAN_ELEMENT_THEORY":"SGP4","TIME_SYSTEM":"UTC","SITE":"AFETR","FILE":"3765015","REF_FRAME":"TEME","INCLINATION":"53.2177","APOAPSIS":"540.500","PERIAPSIS":"539.012","ARG_OF_PERICENTER":"82.1749","DECAY_DATE":null,"EPOCH":"2023-01-29T20:52:49.817856","OBJECT_ID":"2022-104AB","TLE_LINE2":"2 53613  53.2177 288.6748 0001075  82.1749 277.9365 15.08836535 24315","REV_AT_EPOCH":"2431","SEMIMAJOR_AXIS":"6917.891","NORAD_CAT_ID":"53613","LAUNCH_DATE":"2022-08-28"},{"REF_FRAME":"TEME","INCLINATION":"53.2156","APOAPSIS":"540.577","RA_OF_ASC_NODE":"278.2196","TIME_SYSTEM":"UTC","MEAN_ELEMENT_THEORY":"SGP4","CENTER_NAME":"EARTH","FILE":"3765015","SITE":"AFETR","EPOCH":"2023-01-29T22:30:54.678240","NORAD_CAT_ID":"53616","LAUNCH_DATE":"2022-08-28","TLE_LINE2":"2 53616  53.2156 278.2196 0001189  92.5075 267.6053 15.08836935 24572","OBJECT_ID":"2022-104AE","REV_AT_EPOCH":"2457","SEMIMAJOR_AXIS":"6917.890","ARG_OF_PERICENTER":"92.5075","PERIAPSIS":"538.932","DECAY_DATE":null,"MEAN_MOTION_DOT":"0.00004092","PERIOD":"95.438","COUNTRY_CODE":"US","GP_ID":"223960547","ELEMENT_SET_NO":"999","MEAN_MOTION":"15.08836935","BSTAR":"0.00027504000000","EPHEMERIS_TYPE":"0","MEAN_ANOMALY":"267.6053","CLASSIFICATION_TYPE":"U","TLE_LINE1":"1 53616U 22104AE  23029.93813285  .00004092  00000-0  27504-3 0  9991","OBJECT_NAME":"STARLINK-4605","ECCENTRICITY":"0.00011890","MEAN_MOTION_DDOT":"0.0000000000000","RCS_SIZE":"LARGE","OBJECT_TYPE":"PAYLOAD"},{"DECAY_DATE":null,"ARG_OF_PERICENTER":"106.1945","PERIAPSIS":"538.833","NORAD_CAT_ID":"53617","LAUNCH_DATE":"2022-08-28","TLE_LINE2":"2 53617  53.2161 288.6045 0001507 106.1945 253.9213 15.08797452 24317","OBJECT_ID":"2022-104AF","REV_AT_EPOCH":"2431","SEMIMAJOR_AXIS":"6918.010","EPOCH":"2023-01-29T20:36:55.244736","FILE":"3765015","SITE":"AFETR","RA_OF_ASC_NODE":"288.6045","TIME_SYSTEM":"UTC","MEAN_ELEMENT_THEORY":"SGP4","CENTER_NAME":"EARTH","REF_FRAME":"TEME","INCLINATION":"53.2161","APOAPSIS":"540.918","RCS_SIZE":"LARGE","OBJECT_TYPE":"PAYLOAD","MEAN_MOTION_DDOT":"0.0000000000000","ECCENTRICITY":"0.00015070","MEAN_ANOMALY":"253.9213","EPHEMERIS_TYPE":"0","CLASSIFICATION_TYPE":"U","TLE_LINE1":"1 53617U 22104AF  23029.85897274  .00008960  00000-0  58102-3 0  9999","OBJECT_NAME":"STARLINK-4601","MEAN_MOTION":"15.08797452","BSTAR":"0.00058102000000","ELEMENT_SET_NO":"999","GP_ID":"223959305","COUNTRY_CODE":"US","MEAN_MOTION_DOT":"0.00008960","PERIOD":"95.440"},{"SITE":"AFETR","FILE":"3765015","RA_OF_ASC_NODE":"291.8107","CENTER_NAME":"EARTH","TIME_SYSTEM":"UTC","MEAN_ELEMENT_THEORY":"SGP4","REF_FRAME":"TEME","INCLINATION":"53.2167","APOAPSIS":"540.821","DECAY_DATE":null,"ARG_OF_PERICENTER":"68.2441","PERIAPSIS":"538.584","OBJECT_ID":"2022-104AG","TLE_LINE2":"2 53618  53.2167 291.8107 0001617  68.2441 291.8723 15.08854059 23627","REV_AT_EPOCH":"2362","SEMIMAJOR_AXIS":"6917.837","NORAD_CAT_ID":"53618","LAUNCH_DATE":"2022-08-28","EPOCH":"2023-01-29T02:51:45.208800","MEAN_MOTION":"15.08854059","BSTAR":"0.00082712000000","GP_ID":"223959553","ELEMENT_SET_NO":"999","COUNTRY_CODE":"US","PERIOD":"95.437","MEAN_MOTION_DOT":"0.00012905","OBJECT_TYPE":"PAYLOAD","RCS_SIZE":"LARGE","MEAN_MOTION_DDOT":"0.0000000000000","ECCENTRICITY":"0.00016170","TLE_LINE1":"1 53618U 22104AG  23029.11927325  .00012905  00000-0  82712-3 0  9998","OBJECT_NAME":"STARLINK-4604","EPHEMERIS_TYPE":"0","MEAN_ANOMALY":"291.8723","CLASSIFICATION_TYPE":"U"},{"APOAPSIS":"540.587","INCLINATION":"53.2174","REF_FRAME":"TEME","FILE":"3765015","SITE":"AFETR","CENTER_NAME":"EARTH","TIME_SYSTEM":"UTC","MEAN_ELEMENT_THEORY":"SGP4","RA_OF_ASC_NODE":"288.5757","LAUNCH_DATE":"2022-08-28","NORAD_CAT_ID":"53619","REV_AT_EPOCH":"2431","SEMIMAJOR_AXIS":"6917.874","TLE_LINE2":"2 53619  53.2174 288.5757 0001226  81.7807 278.3324 15.08842037 24319","OBJECT_ID":"2022-104AH","EPOCH":"2023-01-29T20:31:36.447744","DECAY_DATE":null,"PERIAPSIS":"538.891","ARG_OF_PERICENTER":"81.7807","COUNTRY_CODE":"US","MEAN_MOTION_DOT":"0.00003153","PERIOD":"95.437","BSTAR":"0.00021611000000","MEAN_MOTION":"15.08842037","ELEMENT_SET_NO":"999","GP_ID":"223960299","ECCENTRICITY":"0.00012260","CLASSIFICATION_TYPE":"U","EPHEMERIS_TYPE":"0","MEAN_ANOMALY":"278.3324","OBJECT_NAME":"STARLINK-4609","TLE_LINE1":"1 53619U 22104AH  23029.85528296  .00003153  00000-0  21611-3 0  9990","RCS_SIZE":"LARGE","OBJECT_TYPE":"PAYLOAD","MEAN_MOTION_DDOT":"0.0000000000000"},{"DECAY_DATE":null,"ARG_OF_PERICENTER":"94.2461","PERIAPSIS":"538.994","LAUNCH_DATE":"2022-08-28","NORAD_CAT_ID":"53620","SEMIMAJOR_AXIS":"6917.874","REV_AT_EPOCH":"2442","TLE_LINE2":"2 53620  53.2161 288.4940 0001076  94.2461 265.8655 15.08842207 24427","OBJECT_ID":"2022-104AJ","EPOCH":"2023-01-29T20:10:23.064672","FILE":"3765015","SITE":"AFETR","TIME_SYSTEM":"UTC","CENTER_NAME":"EARTH","MEAN_ELEMENT_THEORY":"SGP4","RA_OF_ASC_NODE":"288.4940","APOAPSIS":"540.483","INCLINATION":"53.2161","REF_FRAME":"TEME","RCS_SIZE":"MEDIUM","OBJECT_TYPE":"PAYLOAD","MEAN_MOTION_DDOT":"0.0000000000000","ECCENTRICITY":"0.00010760","CLASSIFICATION_TYPE":"U","MEAN_ANOMALY":"265.8655","EPHEMERIS_TYPE":"0","OBJECT_NAME":"STARLINK-4615","TLE_LINE1":"1 53620U 22104AJ  23029.84054473  .00004041  00000-0  27182-3 0  9998","BSTAR":"0.00027182000000","MEAN_MOTION":"15.08842207","GP_ID":"223960051","ELEMENT_SET_NO":"999","COUNTRY_CODE":"US","MEAN_MOTION_DOT":"0.00004041","PERIOD":"95.437"},{"EPOCH":"2023-01-29T17:15:31.882464","SEMIMAJOR_AXIS":"6917.880","REV_AT_EPOCH":"2429","OBJECT_ID":"2022-104AK","TLE_LINE2":"2 53621  53.2176 289.1555 0001450  93.8525 266.2633 15.08840014 24296","LAUNCH_DATE":"2022-08-28","NORAD_CAT_ID":"53621","ARG_OF_PERICENTER":"93.8525","PERIAPSIS":"538.742","DECAY_DATE":null,"APOAPSIS":"540.748","REF_FRAME":"TEME","INCLINATION":"53.2176","CENTER_NAME":"EARTH","TIME_SYSTEM":"UTC","MEAN_ELEMENT_THEORY":"SGP4","RA_OF_ASC_NODE":"289.1555","SITE":"AFETR","FILE":"3765015","OBJECT_NAME":"STARLINK-4608","TLE_LINE1":"1 53621U 22104AK  23029.71911901  .00001783  00000-0  13009-3 0  9996","CLASSIFICATION_TYPE":"U","EPHEMERIS_TYPE":"0","MEAN_ANOMALY":"266.2633","ECCENTRICITY":"0.00014500","MEAN_MOTION_DDOT":"0.0000000000000","OBJECT_TYPE":"PAYLOAD","RCS_SIZE":"LARGE","PERIOD":"95.438","MEAN_MOTION_DOT":"0.00001783","COUNTRY_CODE":"US","ELEMENT_SET_NO":"999","GP_ID":"223958808","MEAN_MOTION":"15.08840014","BSTAR":"0.00013009000000"}];
